CCSDS_OMM_VERS = 2.0
CREATION_DATE  = 
ORIGINATOR     = 

OBJECT_NAME    = COSMOS 1892
OBJECT_ID      = 1987-088A
CENTER_NAME    = EARTH
REF_FRAME      = TEME
TIME_SYSTEM    = UTC
MEAN_ELEMENT_THEORY = SGP/SGP4

EPOCH          = 2025-11-06T19:30:45.961344
MEAN_MOTION    = 15.94895452
ECCENTRICITY   = .00058583
INCLINATION    = 82.4688
RA_OF_ASC_NODE = 84.2278
ARG_OF_PERICENTER = 294.9608
MEAN_ANOMALY   = 65.1058

EPHEMERIS_TYPE = 0
CLASSIFICATION_TYPE = U
NORAD_CAT_ID   = 18421
ELEMENT_SET_NO = 999
REV_AT_EPOCH   = 8556
BSTAR          = .79577875E-3
MEAN_MOTION_DOT = .305377E-2
MEAN_MOTION_DDOT = .34843312E-4

CCSDS_OMM_VERS = 2.0
CREATION_DATE  = 
ORIGINATOR     = 

OBJECT_NAME    = SL-14 R/B
OBJECT_ID      = 1988-001B
CENTER_NAME    = EARTH
REF_FRAME      = TEME
TIME_SYSTEM    = UTC
MEAN_ELEMENT_THEORY = SGP/SGP4

EPOCH          = 2025-11-07T01:49:05.999232
MEAN_MOTION    = 14.85364026
ECCENTRICITY   = .0016525
INCLINATION    = 82.5107
RA_OF_ASC_NODE = 310.6991
ARG_OF_PERICENTER = 285.3560
MEAN_ANOMALY   = 74.5829

EPHEMERIS_TYPE = 0
CLASSIFICATION_TYPE = U
NORAD_CAT_ID   = 18749
ELEMENT_SET_NO = 999
REV_AT_EPOCH   = 2382
BSTAR          = .72851E-4
MEAN_MOTION_DOT = .652E-5
MEAN_MOTION_DDOT = 0

CCSDS_OMM_VERS = 2.0
CREATION_DATE  = 
ORIGINATOR     = 

OBJECT_NAME    = COSMOS 1933
OBJECT_ID      = 1988-020A
CENTER_NAME    = EARTH
REF_FRAME      = TEME
TIME_SYSTEM    = UTC
MEAN_ELEMENT_THEORY = SGP/SGP4

EPOCH          = 2025-11-07T03:09:12.464064
MEAN_MOTION    = 15.16684957
ECCENTRICITY   = .0002837
INCLINATION    = 82.5157
RA_OF_ASC_NODE = 12.0489
ARG_OF_PERICENTER = 261.5371
MEAN_ANOMALY   = 98.5540

EPHEMERIS_TYPE = 0
CLASSIFICATION_TYPE = U
NORAD_CAT_ID   = 18958
ELEMENT_SET_NO = 999
REV_AT_EPOCH   = 3164
BSTAR          = .2826E-3
MEAN_MOTION_DOT = .5562E-4
MEAN_MOTION_DDOT = 0

CCSDS_OMM_VERS = 2.0
CREATION_DATE  = 
ORIGINATOR     = 

OBJECT_NAME    = SL-3 R/B
OBJECT_ID      = 1988-032B
CENTER_NAME    = EARTH
REF_FRAME      = TEME
TIME_SYSTEM    = UTC
MEAN_ELEMENT_THEORY = SGP/SGP4

EPOCH          = 2025-11-07T03:28:54.498144
MEAN_MOTION    = 15.18180654
ECCENTRICITY   = .0025276
INCLINATION    = 97.5048
RA_OF_ASC_NODE = 290.1321
ARG_OF_PERICENTER = 303.7988
MEAN_ANOMALY   = 56.0839

EPHEMERIS_TYPE = 0
CLASSIFICATION_TYPE = U
NORAD_CAT_ID   = 19046
ELEMENT_SET_NO = 999
REV_AT_EPOCH   = 3350
BSTAR          = .35253E-3
MEAN_MOTION_DOT = .7196E-4
MEAN_MOTION_DDOT = 0

CCSDS_OMM_VERS = 2.0
CREATION_DATE  = 
ORIGINATOR     = 

OBJECT_NAME    = SL-16 R/B
OBJECT_ID      = 1988-039B
CENTER_NAME    = EARTH
REF_FRAME      = TEME
TIME_SYSTEM    = UTC
MEAN_ELEMENT_THEORY = SGP/SGP4

EPOCH          = 2025-11-07T03:54:15.229728
MEAN_MOTION    = 14.19587038
ECCENTRICITY   = .0021454
INCLINATION    = 71.0147
RA_OF_ASC_NODE = 327.6252
ARG_OF_PERICENTER = 174.3527
MEAN_ANOMALY   = 185.7844

EPHEMERIS_TYPE = 0
CLASSIFICATION_TYPE = U
NORAD_CAT_ID   = 19120
ELEMENT_SET_NO = 999
REV_AT_EPOCH   = 94099
BSTAR          = .97411E-4
MEAN_MOTION_DOT = .158E-5
MEAN_MOTION_DDOT = 0

CCSDS_OMM_VERS = 2.0
CREATION_DATE  = 
ORIGINATOR     = 

OBJECT_NAME    = COSMOS 1953
OBJECT_ID      = 1988-050A
CENTER_NAME    = EARTH
REF_FRAME      = TEME
TIME_SYSTEM    = UTC
MEAN_ELEMENT_THEORY = SGP/SGP4

EPOCH          = 2025-11-06T23:34:12.576000
MEAN_MOTION    = 15.26343062
ECCENTRICITY   = .0011487
INCLINATION    = 82.5065
RA_OF_ASC_NODE = 281.4476
ARG_OF_PERICENTER = 185.5640
MEAN_ANOMALY   = 174.5472

EPHEMERIS_TYPE = 0
CLASSIFICATION_TYPE = U
NORAD_CAT_ID   = 19210
ELEMENT_SET_NO = 999
REV_AT_EPOCH   = 1905
BSTAR          = .24312E-3
MEAN_MOTION_DOT = .6358E-4
MEAN_MOTION_DDOT = 0

CCSDS_OMM_VERS = 2.0
CREATION_DATE  = 
ORIGINATOR     = 

OBJECT_NAME    = SL-8 R/B
OBJECT_ID      = 1988-053B
CENTER_NAME    = EARTH
REF_FRAME      = TEME
TIME_SYSTEM    = UTC
MEAN_ELEMENT_THEORY = SGP/SGP4

EPOCH          = 2025-11-07T03:35:05.263008
MEAN_MOTION    = 14.38826238
ECCENTRICITY   = .0020298
INCLINATION    = 74.0478
RA_OF_ASC_NODE = 338.3168
ARG_OF_PERICENTER = 193.2067
MEAN_ANOMALY   = 223.1811

EPHEMERIS_TYPE = 0
CLASSIFICATION_TYPE = U
NORAD_CAT_ID   = 19257
ELEMENT_SET_NO = 999
REV_AT_EPOCH   = 95897
BSTAR          = .12306E-3
MEAN_MOTION_DOT = .353E-5
MEAN_MOTION_DDOT = 0

CCSDS_OMM_VERS = 2.0
CREATION_DATE  = 
ORIGINATOR     = 

OBJECT_NAME    = COSMOS 1975
OBJECT_ID      = 1988-093A
CENTER_NAME    = EARTH
REF_FRAME      = TEME
TIME_SYSTEM    = UTC
MEAN_ELEMENT_THEORY = SGP/SGP4

EPOCH          = 2025-11-07T04:14:14.021952
MEAN_MOTION    = 15.25622223
ECCENTRICITY   = .0009456
INCLINATION    = 82.5220
RA_OF_ASC_NODE = 240.4037
ARG_OF_PERICENTER = 238.4390
MEAN_ANOMALY   = 121.5925

EPHEMERIS_TYPE = 0
CLASSIFICATION_TYPE = U
NORAD_CAT_ID   = 19573
ELEMENT_SET_NO = 999
REV_AT_EPOCH   = 71
BSTAR          = .40839E-3
MEAN_MOTION_DOT = .10426E-3
MEAN_MOTION_DDOT = 0

CCSDS_OMM_VERS = 2.0
CREATION_DATE  = 
ORIGINATOR     = 

OBJECT_NAME    = SL-14 R/B
OBJECT_ID      = 1988-093B
CENTER_NAME    = EARTH
REF_FRAME      = TEME
TIME_SYSTEM    = UTC
MEAN_ELEMENT_THEORY = SGP/SGP4

EPOCH          = 2025-11-07T02:04:11.733024
MEAN_MOTION    = 14.85493471
ECCENTRICITY   = .0022313
INCLINATION    = 82.5303
RA_OF_ASC_NODE = 157.1259
ARG_OF_PERICENTER = 84.1859
MEAN_ANOMALY   = 35.2943

EPHEMERIS_TYPE = 0
CLASSIFICATION_TYPE = U
NORAD_CAT_ID   = 19574
ELEMENT_SET_NO = 999
REV_AT_EPOCH   = 98283
BSTAR          = .64629E-4
MEAN_MOTION_DOT = .585E-5
MEAN_MOTION_DDOT = 0

CCSDS_OMM_VERS = 2.0
CREATION_DATE  = 
ORIGINATOR     = 

OBJECT_NAME    = SL-16 R/B
OBJECT_ID      = 1988-102B
CENTER_NAME    = EARTH
REF_FRAME      = TEME
TIME_SYSTEM    = UTC
MEAN_ELEMENT_THEORY = SGP/SGP4

EPOCH          = 2025-11-06T17:11:59.487936
MEAN_MOTION    = 14.16130966
ECCENTRICITY   = .00150977
INCLINATION    = 71.0011
RA_OF_ASC_NODE = 50.2365
ARG_OF_PERICENTER = 207.0706
MEAN_ANOMALY   = 152.9632

EPHEMERIS_TYPE = 0
CLASSIFICATION_TYPE = U
NORAD_CAT_ID   = 19650
ELEMENT_SET_NO = 999
REV_AT_EPOCH   = 90948
BSTAR          = -.32849438E-4
MEAN_MOTION_DOT = -.113E-5
MEAN_MOTION_DDOT = 0

CCSDS_OMM_VERS = 2.0
CREATION_DATE  = 
ORIGINATOR     = 

OBJECT_NAME    = INTERCOSMOS 24
OBJECT_ID      = 1989-080A
CENTER_NAME    = EARTH
REF_FRAME      = TEME
TIME_SYSTEM    = UTC
MEAN_ELEMENT_THEORY = SGP/SGP4

EPOCH          = 2025-11-07T03:34:55.039296
MEAN_MOTION    = 12.59358586
ECCENTRICITY   = .1187877
INCLINATION    = 82.6083
RA_OF_ASC_NODE = 184.0951
ARG_OF_PERICENTER = 217.0907
MEAN_ANOMALY   = 134.2115

EPHEMERIS_TYPE = 0
CLASSIFICATION_TYPE = U
NORAD_CAT_ID   = 20261
ELEMENT_SET_NO = 999
REV_AT_EPOCH   = 65137
BSTAR          = .25237E-3
MEAN_MOTION_DOT = .856E-5
MEAN_MOTION_DDOT = 0

CCSDS_OMM_VERS = 2.0
CREATION_DATE  = 
ORIGINATOR     = 

OBJECT_NAME    = SL-14 R/B
OBJECT_ID      = 1989-080C
CENTER_NAME    = EARTH
REF_FRAME      = TEME
TIME_SYSTEM    = UTC
MEAN_ELEMENT_THEORY = SGP/SGP4

EPOCH          = 2025-11-06T19:39:49.286016
MEAN_MOTION    = 12.50374598
ECCENTRICITY   = .12314155
INCLINATION    = 82.5921
RA_OF_ASC_NODE = 252.0716
ARG_OF_PERICENTER = 105.6408
MEAN_ANOMALY   = 268.3756

EPHEMERIS_TYPE = 0
CLASSIFICATION_TYPE = U
NORAD_CAT_ID   = 20262
ELEMENT_SET_NO = 999
REV_AT_EPOCH   = 64479
BSTAR          = .10400707E-3
MEAN_MOTION_DOT = .377E-5
MEAN_MOTION_DDOT = 0

