COSMOS 1892             
1 18421U 87088A   25310.81303196  .00305377  34843-4  79578-3 0  9999
2 18421  82.4688  84.2278 0005858 294.9608  65.1058 15.94895452 85560
SL-14 R/B               
1 18749U 88001B   25311.07576388  .00000652  00000+0  72851-4 0  9991
2 18749  82.5107 310.6991 0016525 285.3560  74.5829 14.85364026 23820
COSMOS 1933             
1 18958U 88020A   25311.13139426  .00005562  00000+0  28260-3 0  9998
2 18958  82.5157  12.0489 0002837 261.5371  98.5540 15.16684957 31647
SL-3 R/B                
1 19046U 88032B   25311.14507521  .00007196  00000+0  35253-3 0  9991
2 19046  97.5048 290.1321 0025276 303.7988  56.0839 15.18180654 33504
SL-16 R/B               
1 19120U 88039B   25311.16267627  .00000158  00000+0  97411-4 0  9999
2 19120  71.0147 327.6252 0021454 174.3527 185.7844 14.19587038940991
COSMOS 1953             
1 19210U 88050A   25310.98209000  .00006358  00000+0  24312-3 0  9999
2 19210  82.5065 281.4476 0011487 185.5640 174.5472 15.26343062 19050
SL-8 R/B                
1 19257U 88053B   25311.14936647  .00000353  00000+0  12306-3 0  9995
2 19257  74.0478 338.3168 0020298 193.2067 223.1811 14.38826238958978
COSMOS 1975             
1 19573U 88093A   25311.17655118  .00010426  00000+0  40839-3 0  9998
2 19573  82.5220 240.4037 0009456 238.4390 121.5925 15.25622223   712
SL-14 R/B               
1 19574U 88093B   25311.08624691  .00000585  00000+0  64629-4 0  9990
2 19574  82.5303 157.1259 0022313  84.1859  35.2943 14.85493471982837
SL-16 R/B               
1 19650U 88102B   25310.71666074 -.00000113  00000+0 -32849-4 0  9994
2 19650  71.0011  50.2365 0015097 207.0706 152.9632 14.16130966909483
INTERCOSMOS 24          
1 20261U 89080A   25311.14924814  .00000856  00000+0  25237-3 0  9991
2 20261  82.6083 184.0951 1187877 217.0907 134.2115 12.59358586651374
SL-14 R/B               
1 20262U 89080C   25310.81932044  .00000377  00000+0  10401-3 0  9994
2 20262  82.5921 252.0716 1231415 105.6408 268.3756 12.50374598644796
